[{"OBJECT_NAME":"HEAD-3C","OBJECT_ID":"2023-121C","EPOCH":"2026-03-09T23:24:32.374944","MEAN_MOTION":14.62076038,"ECCENTRICITY":0.00043416,"INCLINATION":44.9997,"RA_OF_ASC_NODE":68.3836,"ARG_OF_PERICENTER":118.4507,"MEAN_ANOMALY":241.6788,"EPHEMERIS_TYPE":0,"CLASSIFICATION_TYPE":"U","NORAD_CAT_ID":57628,"ELEMENT_SET_NO":999,"REV_AT_EPOCH":13721,"BSTAR":0.00024044057,"MEAN_MOTION_DOT":1.059e-5,"MEAN_MOTION_DDOT":0},{"OBJECT_NAME":"FENGYUN 1C DEB","OBJECT_ID":"1999-025BFR","EPOCH":"2026-03-08T11:00:34.246080","MEAN_MOTION":14.53557347,"ECCENTRICITY":0.0055502,"INCLINATION":99.0338,"RA_OF_ASC_NODE":156.8308,"ARG_OF_PERICENTER":24.7721,"MEAN_ANOMALY":335.6119,"EPHEMERIS_TYPE":0,"CLASSIFICATION_TYPE":"U","NORAD_CAT_ID":31071,"ELEMENT_SET_NO":999,"REV_AT_EPOCH":66739,"BSTAR":0.0013889201,"MEAN_MOTION_DOT":5.869e-5,"MEAN_MOTION_DDOT":0}]
